[{"OBJECT_NAME":"STARLINK-11632 [DTC]","OBJECT_ID":"2025-039E","EPOCH":"2026-03-09T11:56:12.513120","MEAN_MOTION":15.71003521,"ECCENTRICITY":0.00010274,"INCLINATION":42.9992,"RA_OF_ASC_NODE":238.1445,"ARG_OF_PERICENTER":244.4077,"MEAN_ANOMALY":115.6684,"EPHEMERIS_TYPE":0,"CLASSIFICATION_TYPE":"U","NORAD_CAT_ID":63108,"ELEMENT_SET_NO":999,"REV_AT_EPOCH":5958,"BSTAR":0.0020586739,"MEAN_MOTION_DOT":0.00274501,"MEAN_MOTION_DDOT":0},{"OBJECT_NAME":"THORAD AGENA D DEB","OBJECT_ID":"1970-025PF","EPOCH":"2026-03-08T02:58:32.488032","MEAN_MOTION":15.64290563,"ECCENTRICITY":0.00166136,"INCLINATION":99.9335,"RA_OF_ASC_NODE":127.481,"ARG_OF_PERICENTER":247.6747,"MEAN_ANOMALY":112.2743,"EPHEMERIS_TYPE":0,"CLASSIFICATION_TYPE":"U","NORAD_CAT_ID":17717,"ELEMENT_SET_NO":999,"REV_AT_EPOCH":15016,"BSTAR":0.0052904272,"MEAN_MOTION_DOT":0.00540965,"MEAN_MOTION_DDOT":0}]
